NORAD_CAT_ID,OBJECT_NAME,OBJECT_TYPE,EPOCH,MEAN_MOTION,ECCENTRICITY,INCLINATION,RA_OF_ASC_NODE,ARG_OF_PERICENTER,MEAN_ANOMALY,BSTAR,MEAN_MOTION_DOT,MEAN_MOTION_DDOT,TLE_LINE0,TLE_LINE1,TLE_LINE2,SEMIMAJOR_AXIS,PERIOD,APOGEE,PERIGEE,DECAYED
53559.0,STARLINK-4508,PAYLOAD,2023-10-06 11:44:33,15.0884116,0.0001604,53.2195,77.9418,95.031,265.0865,2.5996e-05,1.26e-06,0.0,0 STARLINK-4508,1 53559U 22101AJ  23279.48927123  .00000126  00000-0  25996-4 0  9996,2 53559  53.2195  77.9418 0001604  95.0310 265.0865 15.08841160 62676,6917.877,95.437,540.851,538.632,0.0
53559.0,STARLINK-4508,PAYLOAD,2023-10-06 18:06:05,15.08845132,0.0001634,53.2187,76.7521,93.9805,266.1373,0.00010652,1.408e-05,0.0,0 STARLINK-4508,1 53559U 22101AJ  23279.75422632  .00001408  00000-0  10652-3 0  9997,2 53559  53.2187  76.7521 0001634  93.9805 266.1373 15.08845132 62712,6917.865,95.437,540.86,538.599,0.0
53559.0,STARLINK-4508,PAYLOAD,2023-10-07 09:59:56,15.08839067,0.0001612,53.2185,73.7786,88.9465,271.1711,0.00019304,2.785e-05,0.0,0 STARLINK-4508,1 53559U 22101AJ  23280.41663105  .00002785  00000-0  19304-3 0  9996,2 53559  53.2185  73.7786 0001612  88.9465 271.1711 15.08839067 62815,6917.883,95.438,540.863,538.633,0.0
53559.0,STARLINK-4508,PAYLOAD,2023-10-07 17:56:52,15.08844889,0.0001571,53.2182,72.2914,85.1999,274.9173,0.0001888,2.718e-05,0.0,0 STARLINK-4508,1 53559U 22101AJ  23280.74782918  .00002718  00000-0  18880-3 0  9990,2 53559  53.2182  72.2914 0001571  85.1999 274.9173 15.08844889 62860,6917.865,95.437,540.817,538.644,0.0
53559.0,STARLINK-4508,PAYLOAD,2023-10-08 13:01:30,15.08840853,0.0001464,53.2174,68.7226,87.438,272.678,5.3546e-05,5.64e-06,0.0,0 STARLINK-4508,1 53559U 22101AJ  23281.54271126  .00000564  00000-0  53546-4 0  9999,2 53559  53.2174  68.7226 0001464  87.4380 272.6780 15.08840853 62986,6917.878,95.438,540.756,538.73,0.0
53559.0,STARLINK-4508,PAYLOAD,2023-10-08 16:12:16,15.08845864,0.0001488,53.2168,68.1275,89.8016,270.3146,0.00013151,1.806e-05,0.0,0 STARLINK-4508,1 53559U 22101AJ  23281.67518872  .00001806  00000-0  13151-3 0  9992,2 53559  53.2168  68.1275 0001488  89.8016 270.3146 15.08845864 63007,6917.862,95.437,540.757,538.698,0.0
53559.0,STARLINK-4508,PAYLOAD,2023-10-08 19:23:02,15.08852501,0.0001481,53.2175,67.5326,86.9678,273.1484,0.00021487,3.134e-05,0.0,0 STARLINK-4508,1 53559U 22101AJ  23281.80766490  .00003134  00000-0  21487-3 0  9995,2 53559  53.2175  67.5326 0001481  86.9678 273.1484 15.08852501 63024,6917.842,95.437,540.732,538.683,0.0
53559.0,STARLINK-4508,PAYLOAD,2023-10-09 12:52:17,15.08841795,0.0001511,53.2178,64.2628,90.695,269.4215,6.5395e-05,7.53e-06,0.0,0 STARLINK-4508,1 53559U 22101AJ  23282.53631031  .00000753  00000-0  65395-4 0  9999,2 53559  53.2178  64.2628 0001511  90.6950 269.4215 15.08841795 63130,6917.875,95.437,540.785,538.695,0.0
53559.0,STARLINK-4508,PAYLOAD,2023-10-09 16:03:03,15.08846451,0.0001595,53.2181,63.6674,94.1415,265.976,0.00011651,1.567e-05,0.0,0 STARLINK-4508,1 53559U 22101AJ  23282.66878814  .00001567  00000-0  11651-3 0  9994,2 53559  53.2181  63.6674 0001595  94.1415 265.9760 15.08846451 63157,6917.861,95.437,540.829,538.622,0.0
53559.0,STARLINK-4508,PAYLOAD,2023-10-10 12:43:04,15.08845884,0.0001676,53.2171,59.8018,96.2417,263.8766,0.00016505,2.34e-05,0.0,0 STARLINK-4508,1 53559U 22101AJ  23283.52990795  .00002340  00000-0  16505-3 0  9996,2 53559  53.2171  59.8018 0001676  96.2417 263.8766 15.08845884 63286,6917.862,95.437,540.887,538.568,0.0
53559.0,STARLINK-4508,PAYLOAD,2023-10-10 19:04:36,15.08853651,0.0001343,53.2187,58.6145,75.1964,284.9177,0.00015535,2.186e-05,0.0,0 STARLINK-4508,1 53559U 22101AJ  23283.79486366  .00002186  00000-0  15535-3 0  9999,2 53559  53.2187  58.6145 0001343  75.1964 284.9177 15.08853651 63321,6917.839,95.437,540.633,538.775,0.0
53559.0,STARLINK-4508,PAYLOAD,2023-10-11 09:23:05,15.0883093,0.0001548,53.2185,55.937,96.945,263.1718,-4.493e-05,-1.003e-05,0.0,0 STARLINK-4508,1 53559U 22101AJ  23284.39103613 -.00001003  00000-0 -44930-4 0  9998,2 53559  53.2185  55.9370 0001548  96.9450 263.1718 15.08830930 63412,6917.908,95.438,540.844,538.702,0.0
53559.0,STARLINK-4508,PAYLOAD,2023-10-11 14:09:14,15.08837661,0.0001934,53.2184,55.0433,106.4832,253.6373,1.2003e-05,-9.7e-07,0.0,0 STARLINK-4508,1 53559U 22101AJ  23284.58975310 -.00000097  00000-0  12003-4 0  9997,2 53559  53.2184  55.0433 0001934 106.4832 253.6373 15.08837661 63444,6917.888,95.438,541.09,538.415,0.0
53559.0,STARLINK-4508,PAYLOAD,2023-10-11 15:44:37,15.08843816,0.0001486,53.2184,54.7479,88.1229,271.9933,0.00017145,2.442e-05,0.0,0 STARLINK-4508,1 53559U 22101AJ  23284.65599079  .00002442  00000-0  17145-3 0  9995,2 53559  53.2184  54.7479 0001486  88.1229 271.9933 15.08843816 63453,6917.869,95.437,540.762,538.706,0.0
53559.0,STARLINK-4508,PAYLOAD,2023-10-12 07:38:29,15.08838692,0.0001453,53.2185,51.7747,83.2305,276.8852,0.00011895,1.606e-05,0.0,0 STARLINK-4508,1 53559U 22101AJ  23285.31839476  .00001606  00000-0  11895-3 0  9994,2 53559  53.2185  51.7747 0001453  83.2305 276.8852 15.08838692 63555,6917.884,95.438,540.755,538.744,0.0
53559.0,STARLINK-4508,PAYLOAD,2023-10-12 12:24:38,15.08842814,0.0001441,53.2186,50.8828,83.0682,277.0474,0.00016275,2.303e-05,0.0,0 STARLINK-4508,1 53559U 22101AJ  23285.51711340  .00002303  00000-0  16275-3 0  9997,2 53559  53.2186  50.8828 0001441  83.0682 277.0474 15.08842814 63586,6917.872,95.437,540.734,538.74,0.0
53559.0,STARLINK-4508,PAYLOAD,2023-10-12 15:35:24,15.08848359,0.0001433,53.2182,50.2893,84.719,275.3966,0.00027745,4.131e-05,0.0,0 STARLINK-4508,1 53559U 22101AJ  23285.64959080  .00004131  00000-0  27745-3 0  9991,2 53559  53.2182  50.2893 0001433  84.7190 275.3966 15.08848359 63601,6917.855,95.437,540.711,538.729,0.0
53559.0,STARLINK-4508,PAYLOAD,2023-10-13 12:15:25,15.08836508,0.0001615,53.2196,46.422,85.2699,274.8478,5.0651e-05,5.18e-06,0.0,0 STARLINK-4508,1 53559U 22101AJ  23286.51071680  .00000518  00000-0  50651-4 0  9997,2 53559  53.2196  46.4220 0001615  85.2699 274.8478 15.08836508 63738,6917.891,95.438,540.873,538.639,0.0
53559.0,STARLINK-4508,PAYLOAD,2023-10-13 13:50:49,15.08839496,0.0001768,53.2196,46.1247,84.6492,275.4702,0.0001135,1.519e-05,0.0,0 STARLINK-4508,1 53559U 22101AJ  23286.57695647  .00001519  00000-0  11350-3 0  9992,2 53559  53.2196  46.1247 0001768  84.6492 275.4702 15.08839496 63744,6917.882,95.438,540.97,538.524,0.0
53559.0,STARLINK-4508,PAYLOAD,2023-10-13 15:26:12,15.08839986,0.0001771,53.2194,45.8273,83.3506,276.7687,0.000113,1.511e-05,0.0,0 STARLINK-4508,1 53559U 22101AJ  23286.64319599  .00001511  00000-0  11300-3 0  9996,2 53559  53.2194  45.8273 0001771  83.3506 276.7687 15.08839986 63754,6917.88,95.438,540.971,538.52,0.0
53559.0,STARLINK-4508,PAYLOAD,2023-10-14 13:41:35,15.08850134,0.0001702,53.2187,41.6655,71.9976,288.1202,0.00032087,4.824e-05,0.0,0 STARLINK-4508,1 53559U 22101AJ  23287.57055274  .00004824  00000-0  32087-3 0  9991,2 53559  53.2187  41.6655 0001702  71.9976 288.1202 15.08850134 63895,6917.849,95.437,540.892,538.537,0.0
53559.0,STARLINK-4508,PAYLOAD,2023-10-14 15:16:58,15.08853673,0.0001727,53.2189,41.3681,69.8871,290.2307,0.00040314,6.136e-05,0.0,0 STARLINK-4508,1 53559U 22101AJ  23287.63679156  .00006136  00000-0  40314-3 0  9999,2 53559  53.2189  41.3681 0001727  69.8871 290.2307 15.08853673 63903,6917.839,95.437,540.898,538.509,0.0
53559.0,STARLINK-4508,PAYLOAD,2023-10-15 13:32:23,15.08838407,0.0001586,53.2178,37.2034,92.5481,267.5693,-0.00023363,-4.004e-05,0.0,0 STARLINK-4508,1 53559U 22101AJ  23288.56415891 -.00004004  00000-0 -23363-3 0  9995,2 53559  53.2178  37.2034 0001586  92.5481 267.5693 15.08838407 64049,6917.885,95.438,540.847,538.653,0.0
53559.0,STARLINK-4508,PAYLOAD,2023-10-15 15:07:46,15.08834235,0.0001417,53.2175,36.9064,85.7054,274.41,5.4025e-05,5.72e-06,0.0,0 STARLINK-4508,1 53559U 22101AJ  23288.63039987  .00000572  00000-0  54025-4 0  9995,2 53559  53.2175  36.9064 0001417  85.7054 274.4100 15.08834235 64054,6917.898,95.438,540.743,538.783,0.0
53559.0,STARLINK-4508,PAYLOAD,2023-10-16 13:23:10,15.08846536,0.0001394,53.2176,32.7435,84.9887,275.1264,0.00043704,6.676e-05,0.0,0 STARLINK-4508,1 53559U 22101AJ  23289.55776182  .00006676  00000-0  43704-3 0  9994,2 53559  53.2176  32.7435 0001394  84.9887 275.1264 15.08846536 64191,6917.86,95.437,540.69,538.761,0.0
53559.0,STARLINK-4508,PAYLOAD,2023-10-17 10:03:11,15.08846799,0.0001647,53.2179,28.8803,72.2127,287.9045,0.00035545,5.375e-05,0.0,0 STARLINK-4508,1 53559U 22101AJ  23290.41888371  .00005375  00000-0  35545-3 0  9994,2 53559  53.2179  28.8803 0001647  72.2127 287.9045 15.08846799 64321,6917.86,95.437,540.864,538.585,0.0
53559.0,STARLINK-4508,PAYLOAD,2023-10-17 13:13:57,15.08849803,0.0001547,53.2183,28.2815,92.1758,267.9411,0.00034348,5.184e-05,0.0,0 STARLINK-4508,1 53559U 22101AJ  23290.55136073  .00005184  00000-0  34348-3 0  9992,2 53559  53.2183  28.2815 0001547  92.1758 267.9411 15.08849803 64349,6917.85,95.437,540.786,538.645,0.0
53559.0,STARLINK-4508,PAYLOAD,2023-10-17 16:24:43,15.08851857,0.0001579,53.2184,27.6865,93.027,267.0903,0.00035056,5.297e-05,0.0,0 STARLINK-4508,1 53559U 22101AJ  23290.68383933  .00005297  00000-0  35056-3 0  9997,2 53559  53.2184  27.6865 0001579  93.0270 267.0903 15.08851857 64363,6917.844,95.437,540.801,538.617,0.0
53559.0,STARLINK-4508,PAYLOAD,2023-10-18 11:29:21,15.08844219,0.0001738,53.2184,24.1142,103.5225,256.5961,7.1332e-05,8.47e-06,0.0,0 STARLINK-4508,1 53559U 22101AJ  23291.47872045  .00000847  00000-0  71332-4 0  9996,2 53559  53.2184  24.1142 0001738 103.5225 256.5961 15.08844219 64481,6917.867,95.437,540.935,538.53,0.0
53559.0,STARLINK-4508,PAYLOAD,2023-10-18 13:04:44,15.08847226,0.0001521,53.218,23.821,92.042,268.0746,0.00013393,1.845e-05,0.0,0 STARLINK-4508,1 53559U 22101AJ  23291.54495987  .00001845  00000-0  13393-3 0  9991,2 53559  53.2180  23.8210 0001521  92.0420 268.0746 15.08847226 64499,6917.858,95.437,540.776,538.671,0.0
